OBJECT_NAME,OBJECT_ID,EPOCH,MEAN_MOTION,ECCENTRICITY,INCLINATION,RA_OF_ASC_NODE,ARG_OF_PERICENTER,MEAN_ANOMALY,EPHEMERIS_TYPE,CLASSIFICATION_TYPE,NORAD_CAT_ID,ELEMENT_SET_NO,REV_AT_EPOCH,BSTAR,MEAN_MOTION_DOT,MEAN_MOTION_DDOT
ONEWEB-0211,2021-045A,2026-07-23T03:33:36.936288,13.16197688,.00027556,87.8981,251.9089,99.3190,260.8253,0,U,48767,999,24917,-.68157226E-4,-.13E-6,0
ONEWEB-0223,2021-045B,2026-07-23T04:02:28.673952,13.15548744,.00024086,87.8982,252.0230,102.8203,257.3196,0,U,48768,999,24913,-.25850145E-3,-.84E-6,0
ONEWEB-0230,2021-045C,2026-07-23T03:21:24.596928,13.15548770,.00018705,87.8979,252.0390,95.4574,264.6769,0,U,48769,999,24939,.11355796E-3,.56E-6,0
ONEWEB-0237,2021-045D,2026-07-23T04:54:57.083904,13.15551819,.00023844,87.8976,252.0279,91.0325,269.1078,0,U,48770,999,24912,.11458132E-2,.444E-5,0
ONEWEB-0235,2021-045E,2026-07-23T04:18:25.092576,13.15547792,.00023678,87.8983,252.0221,105.2113,254.9279,0,U,48771,999,24911,-.34077226E-3,-.115E-5,0
ONEWEB-0242,2021-045F,2026-07-23T04:09:19.329696,13.15548585,.00020203,87.8987,252.0210,102.6196,257.5161,0,U,48772,999,24915,-.24598039E-3,-.8E-6,0
ONEWEB-0241,2021-045G,2026-07-23T03:51:06.710112,13.15551711,.00023937,87.8974,252.0375,101.1728,258.9671,0,U,48773,999,24906,-.18754727E-3,-.58E-6,0
ONEWEB-0243,2021-045H,2026-07-23T02:47:09.126240,13.15517808,.00022852,87.8980,252.0598,114.7431,245.3937,0,U,48774,999,24908,.16141263E-1,.6091E-4,0
ONEWEB-0222,2021-045J,2026-07-23T04:12:44.877024,13.15547254,.0002266,87.8981,252.0175,99.1115,261.0272,0,U,48775,999,24913,-.93830989E-4,-.22E-6,0
ONEWEB-0244,2021-045K,2026-07-23T04:50:24.018432,13.15547696,.00021357,87.8985,252.0084,101.8319,258.3051,0,U,48776,999,24970,.31194004E-3,.13E-5,0
ONEWEB-0247,2021-045L,2026-07-23T04:45:48.889728,13.15546328,.00023303,87.8975,252.0369,117.2669,242.8699,0,U,48777,999,24914,.3109924E-3,.13E-5,0
ONEWEB-0245,2021-045M,2026-07-23T02:49:26.332896,13.15549333,.00022197,87.8982,252.0355,97.0461,263.0922,0,U,48778,999,24910,.35004622E-3,.145E-5,0
ONEWEB-0229,2021-045N,2026-07-23T04:32:08.670336,13.15547765,.00020139,87.8981,252.0189,100.3791,259.7566,0,U,48779,999,24914,.37435629E-3,.154E-5,0
ONEWEB-0228,2021-045P,2026-07-23T03:30:42.994080,13.15549649,.00021358,87.8990,252.0221,98.5999,261.5374,0,U,48780,999,24905,.22187959E-3,.96E-6,0
ONEWEB-0232,2021-045Q,2026-07-23T02:54:02.335968,13.15547357,.00021353,87.8990,252.0276,96.2642,263.8732,0,U,48781,999,24937,.44027365E-3,.179E-5,0
ONEWEB-0231,2021-045R,2026-07-23T04:11:36.574368,13.15547940,.00022766,87.8977,252.0274,100.8441,259.2945,0,U,48782,999,24907,.13429843E-3,.63E-6,0
ONEWEB-0234,2021-045S,2026-07-23T03:16:39.240192,13.15547909,.0002551,87.8993,252.0181,79.8146,280.3272,0,U,48783,999,24920,.32243931E-3,.134E-5,0
ONEWEB-0238,2021-045T,2026-07-23T03:17:01.054464,13.15548974,.00022549,87.8993,252.0142,85.9844,274.1544,0,U,48784,999,24910,.22939168E-3,.99E-6,0
ONEWEB-0240,2021-045U,2026-07-23T03:47:37.630752,13.15549730,.00023943,87.8985,252.0190,98.2383,261.9019,0,U,48785,999,24913,-.38867505E-3,-.133E-5,0
ONEWEB-0246,2021-045V,2026-07-23T03:39:39.665088,13.15548745,.0002032,87.8988,252.0244,99.6125,260.5235,0,U,48786,999,24900,.2675565E-4,.23E-6,0
ONEWEB-0210,2021-045W,2026-07-23T04:52:40.702368,13.15548377,.0002119,87.8985,252.0111,121.9043,238.2294,0,U,48787,999,24905,.39761094E-3,.163E-5,0
ONEWEB-0214,2021-045X,2026-07-23T03:15:41.989824,13.15547264,.00017388,87.8990,252.0219,103.2786,256.8539,0,U,48788,999,24901,.15760533E-3,.72E-6,0
ONEWEB-0221,2021-045Y,2026-07-23T03:25:58.524672,13.15548343,.00021377,87.8986,252.0283,100.0621,260.0750,0,U,48789,999,24910,.22096297E-3,.96E-6,0
ONEWEB-0213,2021-045Z,2026-07-23T04:59:31.249248,13.15548711,.00021552,87.8988,252.0189,104.9982,255.1387,0,U,48790,999,24917,.15282493E-3,.7E-6,0
ONEWEB-0212,2021-045AA,2026-07-23T04:26:25.944000,13.15547111,.00020245,87.8982,252.0174,95.5550,264.5812,0,U,48791,999,24916,-.26398117E-4,.3E-7,0
ONEWEB-0227,2021-045AB,2026-07-23T04:25:16.085280,13.15560309,.00021611,87.8977,252.0176,98.5477,261.5898,0,U,48792,999,24911,.93519077E-3,.365E-5,0
ONEWEB-0226,2021-045AC,2026-07-23T04:16:10.246368,13.15547469,.00020666,87.8981,252.0236,103.8288,256.3073,0,U,48793,999,24908,-.24941583E-4,.3E-7,0
ONEWEB-0224,2021-045AD,2026-07-23T03:23:41.443296,13.15549116,.00029109,87.8978,252.0628,90.0818,270.0646,0,U,48794,999,24900,.4890643E-4,.31E-6,0
ONEWEB-0233,2021-045AE,2026-07-23T03:30:18.803808,13.15548405,.00022808,87.8976,252.0690,100.5974,259.5414,0,U,48795,999,24902,-.54088394E-3,-.191E-5,0
ONEWEB-0190,2021-045AF,2026-07-23T03:12:16.620480,13.15549134,.00024352,87.8984,252.0357,111.0741,249.0650,0,U,48796,999,24909,.16526027E-3,.75E-6,0
